{
  "type": "FeatureCollection",
  "name": "indiana_bonebank_clip",
  "crs": { "type": "name", "properties": { "name": "urn:ogc:def:crs:OGC:1.3:CRS84" } },
  "features": [
    {
      "type": "Feature",
      "properties": {
        "id": "ms-bonebank-1",
        "height": 24,
        "source": "microsoft-usbuildingfootprints",
        "release": "v2"
      },
      "geometry": {
        "type": "Polygon",
        "coordinates": [
          [
            [-88.0212, 37.8294],
            [-88.0204, 37.8294],
            [-88.0204, 37.8301],
            [-88.0212, 37.8301],
            [-88.0212, 37.8294]
          ]
        ]
      }
    },
    {
      "type": "Feature",
      "properties": {
        "id": "ms-bonebank-2",
        "height": 18,
        "source": "microsoft-usbuildingfootprints",
        "release": "v2"
      },
      "geometry": {
        "type": "Polygon",
        "coordinates": [
          [
            [-88.0198, 37.8296],
            [-88.0192, 37.8296],
            [-88.0192, 37.8300],
            [-88.0198, 37.8300],
            [-88.0198, 37.8296]
          ]
        ]
      }
    },
    {
      "type": "Feature",
      "properties": {
        "id": "ms-bonebank-3",
        "height": 22,
        "source": "microsoft-usbuildingfootprints",
        "release": "v2"
      },
      "geometry": {
        "type": "Polygon",
        "coordinates": [
          [
            [-88.0220, 37.8310],
            [-88.0210, 37.8310],
            [-88.0210, 37.8317],
            [-88.0220, 37.8317],
            [-88.0220, 37.8310]
          ]
        ]
      }
    }
  ]
}
