{
  "type": "FeatureCollection",
  "features": [
    {
      "type": "Feature",
      "properties": { "depth_ft": 0.0, "label": "DRY", "stub": true },
      "geometry": {
        "type": "Polygon",
        "coordinates": [[[-88.022, 37.828], [-88.018, 37.828], [-88.018, 37.832], [-88.022, 37.832], [-88.022, 37.828]]]
      }
    },
    {
      "type": "Feature",
      "properties": { "depth_ft": 1.5, "label": "0.5-2.0", "stub": true },
      "geometry": {
        "type": "Polygon",
        "coordinates": [[[-88.025, 37.825], [-88.022, 37.825], [-88.022, 37.828], [-88.025, 37.828], [-88.025, 37.825]]]
      }
    }
  ]
}
